NORAD_CAT_ID,OBJECT_NAME,OBJECT_TYPE,EPOCH,MEAN_MOTION,ECCENTRICITY,INCLINATION,RA_OF_ASC_NODE,ARG_OF_PERICENTER,MEAN_ANOMALY,BSTAR,MEAN_MOTION_DOT,MEAN_MOTION_DDOT,TLE_LINE0,TLE_LINE1,TLE_LINE2,SEMIMAJOR_AXIS,PERIOD,APOGEE,PERIGEE,DECAYED
53891.0,STARLINK-5041,PAYLOAD,2024-06-10 14:14:21,15.08847938,0.0001423,53.2137,304.2321,87.6956,272.4199,0.00010352,1.36e-05,0.0,0 STARLINK-5041,1 53891U 22119F   24162.59330418  .00001360  00000-0  10352-3 0  9993,2 53891  53.2137 304.2321 0001423  87.6956 272.4199 15.08847938 95501,6917.856,95.437,540.706,538.737,0.0
53891.0,STARLINK-5041,PAYLOAD,2024-06-10 15:49:44,15.08848558,0.0001658,53.2138,303.9347,87.578,272.5402,0.00014586,2.035e-05,0.0,0 STARLINK-5041,1 53891U 22119F   24162.65954528  .00002035  00000-0  14586-3 0  9997,2 53891  53.2138 303.9347 0001658  87.5780 272.5402 15.08848558 95091,6917.854,95.437,540.866,538.572,0.0
53891.0,STARLINK-5041,PAYLOAD,2024-06-10 20:35:54,15.08854686,0.000144,53.218,303.0409,95.2377,264.878,0.0005407,8.331e-05,0.0,0 STARLINK-5041,1 53891U 22119F   24162.85826392  .00008331  00000-0  54070-3 0  9993,2 53891  53.2180 303.0409 0001440  95.2377 264.8780 15.08854686 95547,6917.836,95.437,540.697,538.704,0.0
53891.0,STARLINK-5041,PAYLOAD,2024-06-11 02:57:27,15.08836635,0.0001652,53.215,301.8545,90.8586,269.2595,0.00014698,2.052e-05,0.0,0 STARLINK-5041,1 53891U 22119F   24163.12323067  .00002052  00000-0  14698-3 0  9991,2 53891  53.2150 301.8545 0001652  90.8586 269.2595 15.08836635 95164,6917.891,95.438,540.899,538.613,0.0
53891.0,STARLINK-5041,PAYLOAD,2024-06-11 14:05:08,15.08843071,0.0001406,53.216,299.7728,91.956,268.1593,0.00025243,3.732e-05,0.0,0 STARLINK-5041,1 53891U 22119F   24163.58690903  .00003732  00000-0  25243-3 0  9991,2 53891  53.2160 299.7728 0001406  91.9560 268.1593 15.08843071 95656,6917.871,95.437,540.709,538.763,0.0
53891.0,STARLINK-5041,PAYLOAD,2024-06-11 15:40:31,15.08847856,0.0001456,53.217,299.4752,91.771,268.3449,0.00030435,4.56e-05,0.0,0 STARLINK-5041,1 53891U 22119F   24163.65314735  .00004560  00000-0  30435-3 0  9994,2 53891  53.2170 299.4752 0001456  91.7710 268.3449 15.08847856 95243,6917.856,95.437,540.729,538.714,0.0
53891.0,STARLINK-5041,PAYLOAD,2024-06-12 12:20:33,15.08836217,0.0001767,53.2169,295.6079,104.3768,255.7421,2.9528e-05,1.82e-06,0.0,0 STARLINK-5041,1 53891U 22119F   24164.51427335  .00000182  00000-0  29528-4 0  9999,2 53891  53.2169 295.6079 0001767 104.3768 255.7421 15.08836217 95373,6917.892,95.438,540.979,538.535,0.0
53891.0,STARLINK-5041,PAYLOAD,2024-06-12 15:31:19,15.08833111,0.0001499,53.2176,295.0128,106.0695,254.0462,-2.1522e-05,-6.3e-06,0.0,0 STARLINK-5041,1 53891U 22119F   24164.64675355 -.00000630  00000-0 -21522-4 0  9996,2 53891  53.2176 295.0128 0001499 106.0695 254.0462 15.08833111 95816,6917.901,95.438,540.803,538.729,0.0
53891.0,STARLINK-5041,PAYLOAD,2024-06-13 13:46:43,15.08850289,0.0001522,53.2176,290.8508,105.9095,254.2065,0.00043995,6.723e-05,0.0,0 STARLINK-5041,1 53891U 22119F   24165.57411142  .00006723  00000-0  43995-3 0  9995,2 53891  53.2176 290.8508 0001522 105.9095 254.2065 15.08850289 95951,6917.849,95.437,540.767,538.661,0.0
53891.0,STARLINK-5041,PAYLOAD,2024-06-13 15:22:06,15.08853821,0.0001274,53.2168,290.5553,79.1419,280.9717,0.00052896,8.144e-05,0.0,0 STARLINK-5041,1 53891U 22119F   24165.64035134  .00008144  00000-0  52896-3 0  9995,2 53891  53.2168 290.5553 0001274  79.1419 280.9717 15.08853821 95961,6917.838,95.437,540.584,538.822,0.0
53891.0,STARLINK-5041,PAYLOAD,2024-06-14 15:12:53,15.08837321,0.000142,53.2171,286.0981,93.1733,266.9421,4.7328e-05,4.65e-06,0.0,0 STARLINK-5041,1 53891U 22119F   24166.63395665  .00000465  00000-0  47328-4 0  9996,2 53891  53.2171 286.0981 0001420  93.1733 266.9421 15.08837321 96119,6917.889,95.438,540.736,538.771,0.0
53891.0,STARLINK-5041,PAYLOAD,2024-06-15 13:28:17,15.08850178,0.0001429,53.2171,281.9345,107.604,252.5108,0.00018969,2.733e-05,0.0,0 STARLINK-5041,1 53891U 22119F   24167.56130885  .00002733  00000-0  18969-3 0  9998,2 53891  53.2171 281.9345 0001429 107.6040 252.5108 15.08850178 96251,6917.849,95.437,540.703,538.726,0.0
53891.0,STARLINK-5041,PAYLOAD,2024-06-15 16:39:03,15.08855802,0.0001234,53.2163,281.3379,93.2647,266.8486,0.00029717,4.447e-05,0.0,0 STARLINK-5041,1 53891U 22119F   24167.69378627  .00004447  00000-0  29717-3 0  9997,2 53891  53.2163 281.3379 0001234  93.2647 266.8486 15.08855802 96278,6917.832,95.437,540.551,538.843,0.0
53891.0,STARLINK-5041,PAYLOAD,2024-06-16 13:19:03,15.08865243,0.00012,53.2156,277.4713,89.6593,270.4536,0.00043341,6.621e-05,0.0,0 STARLINK-5041,1 53891U 22119F   24168.55489654  .00006621  00000-0  43341-3 0  9991,2 53891  53.2156 277.4713 0001200  89.6593 270.4536 15.08865243 96402,6917.803,95.436,540.498,538.838,0.0
53891.0,STARLINK-5041,PAYLOAD,2024-06-16 14:54:26,15.08868468,0.000126,53.216,277.1735,87.2731,272.8406,0.00060827,9.413e-05,0.0,0 STARLINK-5041,1 53891U 22119F   24168.62113569  .00009413  00000-0  60827-3 0  9998,2 53891  53.2160 277.1735 0001260  87.2731 272.8406 15.08868468 96417,6917.793,95.436,540.53,538.787,0.0
53891.0,STARLINK-5041,PAYLOAD,2024-06-17 13:09:50,15.08831894,0.0001285,53.2166,273.0092,101.6022,258.5115,-0.00018875,-3.29e-05,0.0,0 STARLINK-5041,1 53891U 22119F   24169.54850509 -.00003290  00000-0 -18875-3 0  9997,2 53891  53.2166 273.0092 0001285 101.6022 258.5115 15.08831894 96551,6917.905,95.438,540.659,538.881,0.0
53891.0,STARLINK-5041,PAYLOAD,2024-06-18 13:00:38,15.08837083,0.0001143,53.2153,268.5474,110.2482,249.8633,0.00031616,4.747e-05,0.0,0 STARLINK-5041,1 53891U 22119F   24170.54211319  .00004747  00000-0  31616-3 0  9993,2 53891  53.2153 268.5474 0001143 110.2482 249.8633 15.08837083 96700,6917.889,95.438,540.545,538.964,0.0
53891.0,STARLINK-5041,PAYLOAD,2024-06-19 00:08:20,15.08837622,0.0001128,53.2155,266.4666,105.8485,254.2632,0.00039406,5.989e-05,0.0,0 STARLINK-5041,1 53891U 22119F   24171.00579653  .00005989  00000-0  39406-3 0  9997,2 53891  53.2155 266.4666 0001128 105.8485 254.2632 15.08837622 96357,6917.888,95.438,540.533,538.972,0.0
53891.0,STARLINK-5041,PAYLOAD,2024-06-19 12:51:26,15.08840386,0.0001257,53.2171,264.0896,97.0558,263.0577,0.00034369,5.186e-05,0.0,0 STARLINK-5041,1 53891U 22119F   24171.53571906  .00005186  00000-0  34369-3 0  9990,2 53891  53.2171 264.0896 0001257  97.0558 263.0577 15.08840386 96852,6917.879,95.438,540.614,538.875,0.0
53891.0,STARLINK-5041,PAYLOAD,2024-06-20 12:42:13,15.08842401,0.0001262,53.2171,259.6299,95.0505,265.0631,0.00014085,1.955e-05,0.0,0 STARLINK-5041,1 53891U 22119F   24172.52931863  .00001955  00000-0  14085-3 0  9995,2 53891  53.2171 259.6299 0001262  95.0505 265.0631 15.08842401 97006,6917.873,95.437,540.611,538.865,0.0
53891.0,STARLINK-5041,PAYLOAD,2024-06-20 15:52:59,15.08844469,0.0001285,53.2168,259.0336,96.6011,263.5127,0.0001657,2.351e-05,0.0,0 STARLINK-5041,1 53891U 22119F   24172.66179740  .00002351  00000-0  16570-3 0  9990,2 53891  53.2168 259.0336 0001285  96.6011 263.5127 15.08844469 96606,6917.867,95.437,540.621,538.843,0.0
53891.0,STARLINK-5041,PAYLOAD,2024-06-21 04:36:04,15.08838227,0.0001369,53.2168,256.655,95.0103,265.1045,6.5887e-05,7.61e-06,0.0,0 STARLINK-5041,1 53891U 22119F   24173.19172082  .00000761  00000-0  65887-4 0  9990,2 53891  53.2168 256.6550 0001369  95.0103 265.1045 15.08838227 96685,6917.886,95.438,540.698,538.804,0.0
53891.0,STARLINK-5041,PAYLOAD,2024-06-21 12:33:00,15.08839165,0.0001302,53.2175,255.168,96.1761,263.9379,6.9595e-05,8.2e-06,0.0,0 STARLINK-5041,1 53891U 22119F   24173.52292181  .00000820  00000-0  69595-4 0  9996,2 53891  53.2175 255.1680 0001302  96.1761 263.9379 15.08839165 97151,6917.883,95.438,540.649,538.847,0.0
53891.0,STARLINK-5041,PAYLOAD,2024-06-22 04:26:53,15.08820138,0.0001716,53.2176,252.1944,132.1709,227.9429,-7.609e-05,-1.498e-05,0.0,0 STARLINK-5041,1 53891U 22119F   24174.18534174 -.00001498  00000-0 -76090-4 0  9992,2 53891  53.2176 252.1944 0001716 132.1709 227.9429 15.08820138 96834,6917.941,95.439,540.993,538.619,0.0
53891.0,STARLINK-5041,PAYLOAD,2024-06-22 10:48:26,15.08819978,0.0001519,53.218,251.005,115.904,244.2109,-7.5984e-05,-1.496e-05,0.0,0 STARLINK-5041,1 53891U 22119F   24174.45030603 -.00001496  00000-0 -75984-4 0  9999,2 53891  53.2180 251.0050 0001519 115.9040 244.2109 15.08819978 97291,6917.942,95.439,540.857,538.756,0.0
53891.0,STARLINK-5041,PAYLOAD,2024-06-23 04:17:40,15.08831373,0.0001266,53.218,247.7341,96.9427,263.1709,8.7007e-05,1.097e-05,0.0,0 STARLINK-5041,1 53891U 22119F   24175.17894225  .00001097  00000-0  87007-4 0  9991,2 53891  53.2180 247.7341 0001266  96.9427 263.1709 15.08831373 96986,6917.907,95.438,540.648,538.896,0.0
53891.0,STARLINK-5041,PAYLOAD,2024-06-23 10:39:12,15.08842581,0.0001299,53.2172,246.5446,103.3027,256.811,0.00019359,2.795e-05,0.0,0 STARLINK-5041,1 53891U 22119F   24175.44389515  .00002795  00000-0  19359-3 0  9992,2 53891  53.2172 246.5446 0001299 103.3027 256.8110 15.08842581 97029,6917.872,95.437,540.636,538.839,0.0
53891.0,STARLINK-5041,PAYLOAD,2024-06-23 13:49:58,15.08844584,0.0001421,53.2168,245.9502,108.7291,251.3856,0.00033048,4.976e-05,0.0,0 STARLINK-5041,1 53891U 22119F   24175.57637693  .00004976  00000-0  33048-3 0  9993,2 53891  53.2168 245.9502 0001421 108.7291 251.3856 15.08844584 97469,6917.866,95.437,540.714,538.748,0.0
53891.0,STARLINK-5041,PAYLOAD,2024-06-24 12:05:21,15.08879078,0.0001244,53.2148,241.7874,93.1673,266.9462,0.00079472,0.00012396,0.0,0 STARLINK-5041,1 53891U 22119F   24176.50372292  .00012396  00000-0  79472-3 0  9994,2 53891  53.2148 241.7874 0001244  93.1673 266.9462 15.08879078 97187,6917.761,95.435,540.487,538.765,0.0
53891.0,STARLINK-5041,PAYLOAD,2024-06-25 11:56:07,15.08866074,0.0001378,53.2146,237.3262,80.3981,279.7167,0.00039274,5.972e-05,0.0,0 STARLINK-5041,1 53891U 22119F   24177.49731151  .00005972  00000-0  39274-3 0  9994,2 53891  53.2146 237.3262 0001378  80.3981 279.7167 15.08866074 97338,6917.801,95.436,540.619,538.712,0.0
